NORAD_CAT_ID,OBJECT_NAME,OBJECT_TYPE,EPOCH,MEAN_MOTION,ECCENTRICITY,INCLINATION,RA_OF_ASC_NODE,ARG_OF_PERICENTER,MEAN_ANOMALY,BSTAR,MEAN_MOTION_DOT,MEAN_MOTION_DDOT,TLE_LINE0,TLE_LINE1,TLE_LINE2,SEMIMAJOR_AXIS,PERIOD,APOGEE,PERIGEE,DECAYED
56482.0,STARLINK-6220,PAYLOAD,2024-06-09 02:06:59,14.9834014,0.0002939,70.0019,294.5686,265.2781,94.8043,0.0002293,2.645e-05,0.0,0 STARLINK-6220,1 56482U 23064AL  24161.08819119  .00002645  00000-0  22930-3 0  9997,2 56482  70.0019 294.5686 0002939 265.2781  94.8043 14.98340140 60444,6950.162,96.106,574.069,569.984,0.0
56482.0,STARLINK-6220,PAYLOAD,2024-06-09 11:43:49,14.98321165,0.0002847,70.0016,293.5583,264.9433,95.1401,-0.00015094,-1.893e-05,0.0,0 STARLINK-6220,1 56482U 23064AL  24161.48876185 -.00001893  00000-0 -15094-3 0  9996,2 56482  70.0016 293.5583 0002847 264.9433  95.1401 14.98321165 60509,6950.22,96.108,574.064,570.106,0.0
56482.0,STARLINK-6220,PAYLOAD,2024-06-09 14:56:05,14.98322832,0.0002916,70.0016,293.2219,263.2742,96.8085,-9.8988e-05,-1.274e-05,0.0,0 STARLINK-6220,1 56482U 23064AL  24161.62228169 -.00001274  00000-0 -98988-4 0  9992,2 56482  70.0016 293.2219 0002916 263.2742  96.8085 14.98322832 60164,6950.215,96.107,574.107,570.053,0.0
56482.0,STARLINK-6220,PAYLOAD,2024-06-10 13:21:57,14.98333328,0.0003039,70.0017,290.8652,265.9957,94.0855,0.00024158,2.791e-05,0.0,0 STARLINK-6220,1 56482U 23064AL  24162.55691922  .00002791  00000-0  24158-3 0  9996,2 56482  70.0017 290.8652 0003039 265.9957  94.0855 14.98333328 60665,6950.183,96.107,574.16,569.935,0.0
56482.0,STARLINK-6220,PAYLOAD,2024-06-10 14:58:05,14.98335306,0.0003102,70.0016,290.6963,265.3323,94.7481,0.00048892,5.746e-05,0.0,0 STARLINK-6220,1 56482U 23064AL  24162.62367916  .00005746  00000-0  48892-3 0  9991,2 56482  70.0016 290.6963 0003102 265.3323  94.7481 14.98335306 60311,6950.176,96.107,574.197,569.886,0.0
56482.0,STARLINK-6220,PAYLOAD,2024-06-10 18:10:22,14.98340356,0.000314,70.0019,290.3598,265.346,94.734,0.0010613,0.00012597,0.0,0 STARLINK-6220,1 56482U 23064AL  24162.75720031  .00012597  00000-0  10613-2 0  9997,2 56482  70.0019 290.3598 0003140 265.3460  94.7340 14.98340356 60336,6950.161,96.106,574.208,569.844,0.0
56482.0,STARLINK-6220,PAYLOAD,2024-06-11 13:23:58,14.98342698,0.0003123,70.0016,288.3396,265.4209,94.6593,0.00055024,6.481e-05,0.0,0 STARLINK-6220,1 56482U 23064AL  24163.55831703  .00006481  00000-0  55024-3 0  9996,2 56482  70.0016 288.3396 0003123 265.4209  94.6593 14.98342698 60452,6950.154,96.106,574.189,569.848,0.0
56482.0,STARLINK-6220,PAYLOAD,2024-06-11 18:12:22,14.98348784,0.0003126,70.0016,287.8345,265.493,94.5872,0.00067145,7.932e-05,0.0,0 STARLINK-6220,1 56482U 23064AL  24163.75859388  .00007932  00000-0  67145-3 0  9996,2 56482  70.0016 287.8345 0003126 265.4930  94.5872 14.98348784 60848,6950.135,96.106,574.172,569.827,0.0
56482.0,STARLINK-6220,PAYLOAD,2024-06-12 11:49:51,14.98324876,0.0002779,70.002,285.9839,270.7379,89.3462,-6.5201e-05,-8.71e-06,0.0,0 STARLINK-6220,1 56482U 23064AL  24164.49296295 -.00000871  00000-0 -65201-4 0  9999,2 56482  70.0020 285.9839 0002779 270.7379  89.3462 14.98324876 60954,6950.209,96.107,574.005,570.142,0.0
56482.0,STARLINK-6220,PAYLOAD,2024-06-12 18:14:24,14.98323555,0.0002835,70.0009,285.3108,269.3423,90.7411,-6.3485e-05,-8.5e-06,0.0,0 STARLINK-6220,1 56482U 23064AL  24164.76000939 -.00000850  00000-0 -63485-4 0  9996,2 56482  70.0009 285.3108 0002835 269.3423  90.7411 14.98323555 60639,6950.213,96.107,574.048,570.107,0.0
56482.0,STARLINK-6220,PAYLOAD,2024-06-13 11:51:52,14.98336956,0.0002853,70.0006,283.4589,270.4793,89.604,0.00012308,1.376e-05,0.0,0 STARLINK-6220,1 56482U 23064AL  24165.49435616  .00001376  00000-0  12308-3 0  9990,2 56482  70.0006 283.4589 0002853 270.4793  89.6040 14.98336956 61108,6950.171,96.107,574.019,570.053,0.0
56482.0,STARLINK-6220,PAYLOAD,2024-06-13 15:04:08,14.9833821,0.0003189,69.9996,283.1222,269.0588,91.0206,0.00012398,1.387e-05,0.0,0 STARLINK-6220,1 56482U 23064AL  24165.62787470  .00001387  00000-0  12398-3 0  9994,2 56482  69.9996 283.1222 0003189 269.0588  91.0206 14.98338210 60760,6950.168,96.106,574.249,569.816,0.0
56482.0,STARLINK-6220,PAYLOAD,2024-06-13 18:16:24,14.98341194,0.0002954,70.0004,282.7863,268.5132,91.5689,0.00010948,1.214e-05,0.0,0 STARLINK-6220,1 56482U 23064AL  24165.76139210  .00001214  00000-0  10948-3 0  9990,2 56482  70.0004 282.7863 0002954 268.5132  91.5689 14.98341194 60784,6950.158,96.106,574.076,569.97,0.0
56482.0,STARLINK-6220,PAYLOAD,2024-06-14 13:30:01,14.9832476,0.0002893,70.0006,280.766,268.9891,91.0937,0.00017207,1.96e-05,0.0,0 STARLINK-6220,1 56482U 23064AL  24166.56252251  .00001960  00000-0  17207-3 0  9993,2 56482  70.0006 280.7660 0002893 268.9891  91.0937 14.98324760 60902,6950.209,96.107,574.085,570.063,0.0
56482.0,STARLINK-6220,PAYLOAD,2024-06-14 16:42:18,14.98326045,0.0002877,70.0005,280.4293,269.1819,90.9011,0.00017917,2.045e-05,0.0,0 STARLINK-6220,1 56482U 23064AL  24166.69604198  .00002045  00000-0  17917-3 0  9991,2 56482  70.0005 280.4293 0002877 269.1819  90.9011 14.98326045 60926,6950.205,96.107,574.07,570.071,0.0
56482.0,STARLINK-6220,PAYLOAD,2024-06-15 13:32:01,14.98341129,0.0002874,70.0005,278.2412,268.3589,91.7241,7.9519e-05,8.56e-06,0.0,0 STARLINK-6220,1 56482U 23064AL  24167.56391198  .00000856  00000-0  79519-4 0  9996,2 56482  70.0005 278.2412 0002874 268.3589  91.7241 14.98341129 61055,6950.158,96.106,574.021,570.026,0.0
56482.0,STARLINK-6220,PAYLOAD,2024-06-15 16:44:18,14.98340918,0.0002884,70.0005,277.9046,268.3909,91.692,7.1647e-05,7.62e-06,0.0,0 STARLINK-6220,1 56482U 23064AL  24167.69743134  .00000762  00000-0  71647-4 0  9991,2 56482  70.0005 277.9046 0002884 268.3909  91.6920 14.98340918 61071,6950.159,96.106,574.029,570.02,0.0
56482.0,STARLINK-6220,PAYLOAD,2024-06-16 13:34:02,14.9833417,0.0003044,69.9996,275.7153,267.586,92.495,9.4721e-05,1.037e-05,0.0,0 STARLINK-6220,1 56482U 23064AL  24168.56531223  .00001037  00000-0  94721-4 0  9996,2 56482  69.9996 275.7153 0003044 267.5860  92.4950 14.98334170 61208,6950.18,96.107,574.161,569.929,0.0
56482.0,STARLINK-6220,PAYLOAD,2024-06-16 16:46:19,14.98332129,0.0003073,69.9994,275.3779,265.5127,94.5681,0.0001045,1.154e-05,0.0,0 STARLINK-6220,1 56482U 23064AL  24168.69883316  .00001154  00000-0  10450-3 0  9999,2 56482  69.9994 275.3779 0003073 265.5127  94.5681 14.98332129 61220,6950.186,96.107,574.187,569.916,0.0
56482.0,STARLINK-6220,PAYLOAD,2024-06-17 13:36:04,14.98329992,0.0003147,69.9995,273.1909,268.1927,91.8872,-3.9993e-05,-5.7e-06,0.0,0 STARLINK-6220,1 56482U 23064AL  24169.56671711 -.00000570  00000-0 -39993-4 0  9997,2 56482  69.9995 273.1909 0003147 268.1927  91.8872 14.98329992 61351,6950.193,96.107,574.245,569.871,0.0
56482.0,STARLINK-6220,PAYLOAD,2024-06-18 13:38:04,14.98333134,0.0003206,69.9996,270.6656,270.2082,89.871,0.00011981,1.337e-05,0.0,0 STARLINK-6220,1 56482U 23064AL  24170.56811114  .00001337  00000-0  11981-3 0  9998,2 56482  69.9996 270.6656 0003206 270.2082  89.8710 14.98333134 61862,6950.183,96.107,574.276,569.82,0.0
56482.0,STARLINK-6220,PAYLOAD,2024-06-18 15:14:12,14.98332608,0.0003258,69.9996,270.4976,270.0909,89.9876,0.000109,1.208e-05,0.0,0 STARLINK-6220,1 56482U 23064AL  24170.63487169  .00001208  00000-0  10900-3 0  9992,2 56482  69.9996 270.4976 0003258 270.0909  89.9876 14.98332608 61519,6950.185,96.107,574.314,569.785,0.0
56482.0,STARLINK-6220,PAYLOAD,2024-06-19 05:39:25,14.9832662,0.0003067,70.0,268.9826,271.2215,88.8593,9.8276e-05,1.08e-05,0.0,0 STARLINK-6220,1 56482U 23064AL  24171.23571566  .00001080  00000-0  98276-4 0  9995,2 56482  70.0000 268.9826 0003067 271.2215  88.8593 14.98326620 61965,6950.203,96.107,574.2,569.937,0.0
56482.0,STARLINK-6220,PAYLOAD,2024-06-19 13:40:06,14.98325558,0.0002974,70.0001,268.141,269.7738,90.3081,0.00010426,1.151e-05,0.0,0 STARLINK-6220,1 56482U 23064AL  24171.56951693  .00001151  00000-0  10426-3 0  9993,2 56482  70.0001 268.1410 0002974 269.7738  90.3081 14.98325558 61650,6950.207,96.107,574.139,570.005,0.0
56482.0,STARLINK-6220,PAYLOAD,2024-06-19 16:52:22,14.98324585,0.000301,69.9999,267.8044,268.0807,92.0007,0.00020764,2.385e-05,0.0,0 STARLINK-6220,1 56482U 23064AL  24171.70303525  .00002385  00000-0  20764-3 0  9990,2 56482  69.9999 267.8044 0003010 268.0807  92.0007 14.98324585 61671,6950.21,96.107,574.167,569.983,0.0
56482.0,STARLINK-6220,PAYLOAD,2024-06-20 13:42:06,14.98332721,0.0002969,70.0003,265.6173,268.3943,91.6876,4.6057e-05,4.57e-06,0.0,0 STARLINK-6220,1 56482U 23064AL  24172.57091318  .00000457  00000-0  46057-4 0  9992,2 56482  70.0003 265.6173 0002969 268.3943  91.6876 14.98332721 61800,6950.184,96.107,574.113,569.986,0.0
56482.0,STARLINK-6220,PAYLOAD,2024-06-20 15:18:14,14.98332734,0.000297,70.0003,265.449,268.4077,91.6742,4.4975e-05,4.44e-06,0.0,0 STARLINK-6220,1 56482U 23064AL  24172.63767308  .00000444  00000-0  44975-4 0  9991,2 56482  70.0003 265.4490 0002970 268.4077  91.6742 14.98332734 62178,6950.184,96.107,574.114,569.985,0.0
56482.0,STARLINK-6220,PAYLOAD,2024-06-21 13:44:08,14.98329159,0.0003016,70.0001,263.0917,266.4144,93.667,3.2149e-05,2.91e-06,0.0,0 STARLINK-6220,1 56482U 23064AL  24173.57231492  .00000291  00000-0  32149-4 0  9995,2 56482  70.0001 263.0917 0003016 266.4144  93.6670 14.98329159 61953,6950.195,96.107,574.157,569.964,0.0
56482.0,STARLINK-6220,PAYLOAD,2024-06-21 15:20:16,14.98329718,0.000301,70.0001,262.9234,266.4097,93.6718,3.7709e-05,3.57e-06,0.0,0 STARLINK-6220,1 56482U 23064AL  24173.63907444  .00000357  00000-0  37709-4 0  9999,2 56482  70.0001 262.9234 0003010 266.4097  93.6718 14.98329718 62320,6950.194,96.107,574.151,569.967,0.0
56482.0,STARLINK-6220,PAYLOAD,2024-06-22 13:46:09,14.98327731,0.0003059,70.0001,260.5669,266.7641,93.3168,-1.1563e-05,-2.31e-06,0.0,0 STARLINK-6220,1 56482U 23064AL  24174.57371731 -.00000231  00000-0 -11563-4 0  9990,2 56482  70.0001 260.5669 0003059 266.7641  93.3168 14.98327731 62102,6950.2,96.107,574.191,569.939,0.0
